BLUEWALKER-3            
1 53807U 22111AL  26204.29885614  .00004790  00000+0  13366-3 0  9998
2 53807  53.2275 224.3819 0004806 301.0429  59.0104 15.38673785215768
